ONEWEB-0656             
1 55817U 23029X   25292.82780168  .00000053  00000+0  97819-4 0  9997
2 55817  87.9217 322.3611 0001756  80.6864 279.4468 13.20770889129424
ONEWEB-0657             
1 55818U 23029Y   25292.88537207  .00000121  00000+0  26961-3 0  9993
2 55818  87.9254 352.7955 0002429  84.9036 275.2374 13.19727549127218
ONEWEB-0658             
1 55819U 23029Z   25292.57737693  .00000075  00000+0  15565-3 0  9997
2 55819  87.9269 352.8003 0002192 109.7618 250.3751 13.19724770127181
ONEWEB-0660             
1 55820U 23029AA  25292.82281072  .00000143  00000+0  35146-3 0  9995
2 55820  87.9041 337.5701 0001664 106.0947 254.0366 13.14503346127827
ONEWEB-0661             
1 55821U 23029AB  25292.40098141 -.00000141  00000+0 -41384-3 0  9994
2 55821  87.9035 337.7240 0001531 105.1688 254.9612 13.14505000127750
ONEWEB-0662             
1 55822U 23029AC  25292.89257827  .00000199  00000+0  50286-3 0  9998
2 55822  87.9032 337.6313 0001720 107.9342 252.1975 13.14503280127867
ONEWEB-0663             
1 55823U 23029AD  25292.80207503  .00000047  00000+0  83523-4 0  9999
2 55823  87.9227 322.4278 0001851 108.8803 251.2532 13.20848986129417
ONEWEB-0664             
1 55824U 23029AE  25292.36061823  .00000098  00000+0  20861-3 0  9995
2 55824  87.9209 322.5302 0001506  92.2911 267.8394 13.20769867129352
ONEWEB-0665             
1 55825U 23029AF  25292.85451431 -.00000404  00000+0 -11250-2 0  9992
2 55825  87.9036 337.6101 0001792 107.0863 253.0463 13.14502077127839
ONEWEB-0666             
1 55826U 23029AG  25292.50582322  .00000067  00000+0  13369-3 0  9996
2 55826  87.9210 322.4893 0002389  80.2488 279.8915 13.20770456129387
ONEWEB-0667             
1 55827U 23029AH  25292.80253535  .00000120  00000+0  26237-3 0  9999
2 55827  87.9213 322.3591 0001742  99.1582 260.9749 13.20774035129418
ONEWEB-0669             
1 55828U 23029AJ  25292.94932835  .00000092  00000+0  19417-3 0  9992
2 55828  87.9207 322.3687 0001559  73.2195 286.9110 13.20772089129436
ONEWEB-0670             
1 55829U 23029AK  25292.83232785 -.00000008  00000+0 -54966-4 0  9996
2 55829  87.9039 337.6343 0001483 101.8437 258.2859 13.14502359127851
ONEWEB-0671             
1 55830U 23029AL  25292.42100029  .00000069  00000+0  14032-3 0  9992
2 55830  87.9256 352.8811 0001735 103.3132 256.8194 13.19724312127140
ONEWEB-0672             
1 55831U 23029AM  25292.94459327  .00000037  00000+0  59477-4 0  9996
2 55831  87.9206 322.3509 0001977  86.8554 273.2805 13.20770753129431
ONEWEB-0673             
1 55832U 23029AN  25292.39730897  .00000010  00000+0 -78129-5 0  9998
2 55832  87.9272 352.8574 0002007 104.6130 255.5225 13.19725156127149
