[{"OBJECT_NAME":"ONEWEB-0656","OBJECT_ID":"2023-029X","EPOCH":"2025-10-19T19:52:02.065152","MEAN_MOTION":13.20770889,"ECCENTRICITY":0.00017561,"INCLINATION":87.9217,"RA_OF_ASC_NODE":322.3611,"ARG_OF_PERICENTER":80.6864,"MEAN_ANOMALY":279.4468,"EPHEMERIS_TYPE":0,"CLASSIFICATION_TYPE":"U","NORAD_CAT_ID":55817,"ELEMENT_SET_NO":999,"REV_AT_EPOCH":12942,"BSTAR":9.7818746e-5,"MEAN_MOTION_DOT":5.3e-7,"MEAN_MOTION_DDOT":0},{"OBJECT_NAME":"ONEWEB-0657","OBJECT_ID":"2023-029Y","EPOCH":"2025-10-19T21:14:56.146848","MEAN_MOTION":13.19727549,"ECCENTRICITY":0.00024297,"INCLINATION":87.9254,"RA_OF_ASC_NODE":352.7955,"ARG_OF_PERICENTER":84.9036,"MEAN_ANOMALY":275.2374,"EPHEMERIS_TYPE":0,"CLASSIFICATION_TYPE":"U","NORAD_CAT_ID":55818,"ELEMENT_SET_NO":999,"REV_AT_EPOCH":12721,"BSTAR":0.00026960643,"MEAN_MOTION_DOT":1.21e-6,"MEAN_MOTION_DDOT":0},{"OBJECT_NAME":"ONEWEB-0658","OBJECT_ID":"2023-029Z","EPOCH":"2025-10-19T13:51:25.366752","MEAN_MOTION":13.1972477,"ECCENTRICITY":0.00021922,"INCLINATION":87.9269,"RA_OF_ASC_NODE":352.8003,"ARG_OF_PERICENTER":109.7618,"MEAN_ANOMALY":250.3751,"EPHEMERIS_TYPE":0,"CLASSIFICATION_TYPE":"U","NORAD_CAT_ID":55819,"ELEMENT_SET_NO":999,"REV_AT_EPOCH":12718,"BSTAR":0.00015565377,"MEAN_MOTION_DOT":7.5e-7,"MEAN_MOTION_DDOT":0},{"OBJECT_NAME":"ONEWEB-0660","OBJECT_ID":"2023-029AA","EPOCH":"2025-10-19T19:44:50.846208","MEAN_MOTION":13.14503346,"ECCENTRICITY":0.00016644,"INCLINATION":87.9041,"RA_OF_ASC_NODE":337.5701,"ARG_OF_PERICENTER":106.0947,"MEAN_ANOMALY":254.0366,"EPHEMERIS_TYPE":0,"CLASSIFICATION_TYPE":"U","NORAD_CAT_ID":55820,"ELEMENT_SET_NO":999,"REV_AT_EPOCH":12782,"BSTAR":0.0003514628,"MEAN_MOTION_DOT":1.43e-6,"MEAN_MOTION_DDOT":0},{"OBJECT_NAME":"ONEWEB-0661","OBJECT_ID":"2023-029AB","EPOCH":"2025-10-19T09:37:24.793824","MEAN_MOTION":13.14505,"ECCENTRICITY":0.00015316,"INCLINATION":87.9035,"RA_OF_ASC_NODE":337.724,"ARG_OF_PERICENTER":105.1688,"MEAN_ANOMALY":254.9612,"EPHEMERIS_TYPE":0,"CLASSIFICATION_TYPE":"U","NORAD_CAT_ID":55821,"ELEMENT_SET_NO":999,"REV_AT_EPOCH":12775,"BSTAR":-0.00041383931,"MEAN_MOTION_DOT":-1.41e-6,"MEAN_MOTION_DDOT":0},{"OBJECT_NAME":"ONEWEB-0662","OBJECT_ID":"2023-029AC","EPOCH":"2025-10-19T21:25:18.762528","MEAN_MOTION":13.1450328,"ECCENTRICITY":0.00017203,"INCLINATION":87.9032,"RA_OF_ASC_NODE":337.6313,"ARG_OF_PERICENTER":107.9342,"MEAN_ANOMALY":252.1975,"EPHEMERIS_TYPE":0,"CLASSIFICATION_TYPE":"U","NORAD_CAT_ID":55822,"ELEMENT_SET_NO":999,"REV_AT_EPOCH":12786,"BSTAR":0.00050285873,"MEAN_MOTION_DOT":1.99e-6,"MEAN_MOTION_DDOT":0},{"OBJECT_NAME":"ONEWEB-0663","OBJECT_ID":"2023-029AD","EPOCH":"2025-10-19T19:14:59.282592","MEAN_MOTION":13.20848986,"ECCENTRICITY":0.00018519,"INCLINATION":87.9227,"RA_OF_ASC_NODE":322.4278,"ARG_OF_PERICENTER":108.8803,"MEAN_ANOMALY":251.2532,"EPHEMERIS_TYPE":0,"CLASSIFICATION_TYPE":"U","NORAD_CAT_ID":55823,"ELEMENT_SET_NO":999,"REV_AT_EPOCH":12941,"BSTAR":8.3522533e-5,"MEAN_MOTION_DOT":4.7e-7,"MEAN_MOTION_DDOT":0},{"OBJECT_NAME":"ONEWEB-0664","OBJECT_ID":"2023-029AE","EPOCH":"2025-10-19T08:39:17.415072","MEAN_MOTION":13.20769867,"ECCENTRICITY":0.00015063,"INCLINATION":87.9209,"RA_OF_ASC_NODE":322.5302,"ARG_OF_PERICENTER":92.2911,"MEAN_ANOMALY":267.8394,"EPHEMERIS_TYPE":0,"CLASSIFICATION_TYPE":"U","NORAD_CAT_ID":55824,"ELEMENT_SET_NO":999,"REV_AT_EPOCH":12935,"BSTAR":0.00020861209,"MEAN_MOTION_DOT":9.8e-7,"MEAN_MOTION_DDOT":0},{"OBJECT_NAME":"ONEWEB-0665","OBJECT_ID":"2023-029AF","EPOCH":"2025-10-19T20:30:30.036384","MEAN_MOTION":13.14502077,"ECCENTRICITY":0.00017928,"INCLINATION":87.9036,"RA_OF_ASC_NODE":337.6101,"ARG_OF_PERICENTER":107.0863,"MEAN_ANOMALY":253.0463,"EPHEMERIS_TYPE":0,"CLASSIFICATION_TYPE":"U","NORAD_CAT_ID":55825,"ELEMENT_SET_NO":999,"REV_AT_EPOCH":12783,"BSTAR":-0.0011249536,"MEAN_MOTION_DOT":-4.04e-6,"MEAN_MOTION_DDOT":0},{"OBJECT_NAME":"ONEWEB-0666","OBJECT_ID":"2023-029AG","EPOCH":"2025-10-19T12:08:23.126208","MEAN_MOTION":13.20770456,"ECCENTRICITY":0.00023897,"INCLINATION":87.921,"RA_OF_ASC_NODE":322.4893,"ARG_OF_PERICENTER":80.2488,"MEAN_ANOMALY":279.8915,"EPHEMERIS_TYPE":0,"CLASSIFICATION_TYPE":"U","NORAD_CAT_ID":55826,"ELEMENT_SET_NO":999,"REV_AT_EPOCH":12938,"BSTAR":0.00013369254,"MEAN_MOTION_DOT":6.7e-7,"MEAN_MOTION_DDOT":0},{"OBJECT_NAME":"ONEWEB-0667","OBJECT_ID":"2023-029AH","EPOCH":"2025-10-19T19:15:39.054240","MEAN_MOTION":13.20774035,"ECCENTRICITY":0.00017428,"INCLINATION":87.9213,"RA_OF_ASC_NODE":322.3591,"ARG_OF_PERICENTER":99.1582,"MEAN_ANOMALY":260.9749,"EPHEMERIS_TYPE":0,"CLASSIFICATION_TYPE":"U","NORAD_CAT_ID":55827,"ELEMENT_SET_NO":999,"REV_AT_EPOCH":12941,"BSTAR":0.00026236899,"MEAN_MOTION_DOT":1.2e-6,"MEAN_MOTION_DDOT":0},{"OBJECT_NAME":"ONEWEB-0669","OBJECT_ID":"2023-029AJ","EPOCH":"2025-10-19T22:47:01.969440","MEAN_MOTION":13.20772089,"ECCENTRICITY":0.00015597,"INCLINATION":87.9207,"RA_OF_ASC_NODE":322.3687,"ARG_OF_PERICENTER":73.2195,"MEAN_ANOMALY":286.911,"EPHEMERIS_TYPE":0,"CLASSIFICATION_TYPE":"U","NORAD_CAT_ID":55828,"ELEMENT_SET_NO":999,"REV_AT_EPOCH":12943,"BSTAR":0.00019417499,"MEAN_MOTION_DOT":9.2e-7,"MEAN_MOTION_DDOT":0},{"OBJECT_NAME":"ONEWEB-0670","OBJECT_ID":"2023-029AK","EPOCH":"2025-10-19T19:58:33.126240","MEAN_MOTION":13.14502359,"ECCENTRICITY":0.00014839,"INCLINATION":87.9039,"RA_OF_ASC_NODE":337.6343,"ARG_OF_PERICENTER":101.8437,"MEAN_ANOMALY":258.2859,"EPHEMERIS_TYPE":0,"CLASSIFICATION_TYPE":"U","NORAD_CAT_ID":55829,"ELEMENT_SET_NO":999,"REV_AT_EPOCH":12785,"BSTAR":-5.4965566e-5,"MEAN_MOTION_DOT":-8.0e-8,"MEAN_MOTION_DDOT":0},{"OBJECT_NAME":"ONEWEB-0671","OBJECT_ID":"2023-029AL","EPOCH":"2025-10-19T10:06:14.425056","MEAN_MOTION":13.19724312,"ECCENTRICITY":0.00017355,"INCLINATION":87.9256,"RA_OF_ASC_NODE":352.8811,"ARG_OF_PERICENTER":103.3132,"MEAN_ANOMALY":256.8194,"EPHEMERIS_TYPE":0,"CLASSIFICATION_TYPE":"U","NORAD_CAT_ID":55830,"ELEMENT_SET_NO":999,"REV_AT_EPOCH":12714,"BSTAR":0.00014032189,"MEAN_MOTION_DOT":6.9e-7,"MEAN_MOTION_DDOT":0},{"OBJECT_NAME":"ONEWEB-0672","OBJECT_ID":"2023-029AM","EPOCH":"2025-10-19T22:40:12.858528","MEAN_MOTION":13.20770753,"ECCENTRICITY":0.00019775,"INCLINATION":87.9206,"RA_OF_ASC_NODE":322.3509,"ARG_OF_PERICENTER":86.8554,"MEAN_ANOMALY":273.2805,"EPHEMERIS_TYPE":0,"CLASSIFICATION_TYPE":"U","NORAD_CAT_ID":55831,"ELEMENT_SET_NO":999,"REV_AT_EPOCH":12943,"BSTAR":5.9477092e-5,"MEAN_MOTION_DOT":3.7e-7,"MEAN_MOTION_DDOT":0},{"OBJECT_NAME":"ONEWEB-0673","OBJECT_ID":"2023-029AN","EPOCH":"2025-10-19T09:32:07.495008","MEAN_MOTION":13.19725156,"ECCENTRICITY":0.00020079,"INCLINATION":87.9272,"RA_OF_ASC_NODE":352.8574,"ARG_OF_PERICENTER":104.613,"MEAN_ANOMALY":255.5225,"EPHEMERIS_TYPE":0,"CLASSIFICATION_TYPE":"U","NORAD_CAT_ID":55832,"ELEMENT_SET_NO":999,"REV_AT_EPOCH":12714,"BSTAR":-7.812874e-6,"MEAN_MOTION_DOT":1.0e-7,"MEAN_MOTION_DDOT":0}]
